[
    {
        "Altitude(m)": 604234.6072805388,
        "Argument of Periapsis(deg)": 0.0,
        "Eccentricity": 0.0,
        "Inclination(deg)": 60.0,
        "Latitude(deg)": 14.117224648503537,
        "Longitude(deg)": -173.27264409697722,
        "Mean Anomaly(deg)": 163.63639999999998,
        "RAAN(deg)": 114.99999999999999,
        "Satellite Name": "Test1 516",
        "Satellite Number": 516,
        "Semi-Major Axis(m)": 6980739.136638005,
        "Time(s)": 0
    },
    {
        "Altitude(m)": 604223.4358202502,
        "Argument of Periapsis(deg)": 0.00010418945913296404,
        "Eccentricity": 0.0,
        "Inclination(deg)": 60.0,
        "Latitude(deg)": 13.582360441238583,
        "Longitude(deg)": -172.98573605944011,
        "Mean Anomaly(deg)": 164.25650614546183,
        "RAAN(deg)": 114.99957995086024,
        "Satellite Name": "Test1 516",
        "Satellite Number": 516,
        "Semi-Major Axis(m)": 6980739.136638005,
        "Time(s)": 10
    }
]